UNKNOWN                 
1 81052U          26019.47075935  .00006902  00000+0  18055-2 0  9991
2 81052  65.7728 294.0545 0564190 289.6626  64.4412 13.83540829605539
UNKNOWN                 
1 81069U          26021.47192364  .00006205  00000+0  81448-2 0  9990
2 81069 100.3844 289.9982 0066851 308.1511  51.3615 13.60824833521331
UNKNOWN                 
1 81111U          26022.85785500  .00025375  00000+0  53250-2 0  9990
2 81111  62.9005 340.6365 3853589 358.8168   0.5185  7.56847746275055
UNKNOWN                 
1 81123U          26018.47140118  .00000938  00000+0  92419-3 0  9995
2 81123  99.9701 107.1427 0001991 315.0243  45.0747 13.81680240611358
UNKNOWN                 
1 81134U          26023.18689809  .00000246  00000+0  87532-3 0  9998
2 81134  90.2496   4.9567 0024288 282.3787  77.4612 12.92995237467969
UNKNOWN                 
1 81161U          26016.31042138  .00000316  00000+0  37583-3 0  9992
2 81161 100.4168 226.5127 0062179 196.2360 163.6795 13.75682856560881
UNKNOWN                 
1 81219U          26020.58936401  .00000808  00000+0  73863-3 0  9992
2 81219  82.9283 336.9586 0022570 103.3117 257.0561 13.81825191612887
UNKNOWN                 
1 81228U          26021.72661854  .00015580  00000+0  46932-2 0  9995
2 81228  70.5194 186.9639 0064479 302.0641  57.4240 14.41394417631850
UNKNOWN                 
1 81254U          26022.43085206  .00005931  00000+0  38478-2 0  9999
2 81254 100.3839  95.0985 0071138 322.3918  37.2280 14.01840002618591
UNKNOWN                 
1 81279U          26021.93933198  .00002407  00000+0  92985-3 0  9991
2 81279  98.1241  83.1344 0206046 267.1610  90.5971 14.20053587468305
UNKNOWN                 
1 81301U          26016.30960131  .00000199  00000+0  26992-3 0  9990
2 81301  66.7561 213.3012 0091031 209.6336 326.2117 13.76726433611115
UNKNOWN                 
1 81311U          26023.44107947  .00001191  00000+0  24935-3 0  9990
2 81311  98.7259  87.6725 0131119 357.6794  15.8377 14.56609959645660
UNKNOWN                 
1 81317U          26020.84374051  .00000184  00000+0  41293-3 0  9996
2 81317  67.1374  90.5283 0212261   6.5226 102.7446 13.38028720593861
UNKNOWN                 
1 81323U          26022.40288314  .00017147  00000+0  21573-2 0  9998
2 81323  65.7505 274.9589 0340684 292.0669  64.4579 14.48797606118940
UNKNOWN                 
1 81329U          26023.29135330  .00004601  00000+0  16435-2 0  9993
2 81329  65.8222  35.1319 0833487  11.0968 350.7249 13.22304275583577
UNKNOWN                 
1 81343U          26023.15235192  .00010194  00000+0  72577-3 0  9995
2 81343  85.8731 177.2154 0010494 105.7725 254.4667 15.04463949460543
UNKNOWN                 
1 81359U          26021.21017942  .00001021  00000+0  10182-2 0  9990
2 81359  66.8013 317.5214 0119894 298.0230  60.8756 13.78904867610924
UNKNOWN                 
1 81366U          26023.57111937  .00002808  00000+0  10155-2 0  9992
2 81366  65.8851 333.0189 0710553  61.2235 305.8290 13.45240902 71584
UNKNOWN                 
1 81371U          26019.54096183  .00004811  00000+0  77196-3 0  9990
2 81371  98.8124 124.0055 0069399 246.4516 112.9387 14.70593876647395
UNKNOWN                 
1 81386U          26016.45111938  .00003263  00000+0  10774-2 0  9997
2 81386  71.0482 281.2114 0085710  28.9980 331.5876 14.36689610629224
UNKNOWN                 
1 81390U          26018.98013495 -.00000075  00000+0 -19210-3 0  9996
2 81390 103.1077 275.1799 0169605  77.6089 284.3892 12.35626022504695
UNKNOWN                 
1 81392U          26022.23386153  .00005321  00000+0  49656-2 0  9998
2 81392 100.4029  19.5532 0042022 291.4727  80.5645 13.81993316607777
UNKNOWN                 
1 81405U          26003.38107143  .00002710  00000+0  20508-2 0  9992
2 81405  99.4680  56.9006 0161190 166.1515 194.4141 13.88959115564802
UNKNOWN                 
1 81427U          26019.12148382  .00000579  00000+0  36083-3 0  9992
2 81427  98.7483 265.0501 0083933 293.7541  65.4841 14.07016817557021
UNKNOWN                 
1 81438U          26023.10394851  .00004252  00000+0  61793-2 0  9998
2 81438 100.3191 261.5888 0057810 333.6056  26.2137 13.54964431597547
UNKNOWN                 
1 81439U          26021.80781799  .00000083  00000+0  37402-3 0  9994
2 81439  67.1601  64.3178 0599910 178.8059 181.4561 12.62639016266958
UNKNOWN                 
1 81449U          26022.98513325  .00077009  00000+0  50676-2 0  9992
2 81449  66.7923 231.0682 0019310  85.9934 274.3411 15.06941549639751
UNKNOWN                 
1 81478U          26021.04454603  .00009847  00000+0  35174-2 0  9994
2 81478  98.9524 298.9631 0144020 244.5560 127.5097 14.28675103628556
UNKNOWN                 
1 81488U          26022.60532734  .00000102  00000+0  20893-3 0  9998
2 81488  99.9988 260.8711 0043980 258.6669 131.0061 13.56532611602175
UNKNOWN                 
1 81497U          26022.96297618  .00004963  00000+0  44550-2 0  9990
2 81497 100.3027 286.5661 0027916 272.2037 103.5400 13.84516466222009
UNKNOWN                 
1 81499U          26023.31792442  .00005020  00000+0  13749-2 0  9998
2 81499  74.0493 143.3998 0002577 273.2619  86.8245 14.47406251488432
UNKNOWN                 
1 81535U          26023.48329138  .00001684  00000+0  70311-3 0  9996
2 81535  98.1974 107.2855 0234972  28.1862 333.1802 14.13548589393298
UNKNOWN                 
1 81536U          26023.10491809  .00000744  00000+0  48047-2 0  9997
2 81536 101.9636 249.6629 0023928 226.6802 290.1565 12.55923496557000
UNKNOWN                 
1 81537U          26020.28149712  .00000446  00000+0  28648-3 0  9992
2 81537  71.0395  29.5094 0074427  94.4825 266.4801 14.07120841625880
UNKNOWN                 
1 81599U          26023.45797268  .00001309  00000+0  24235-2 0  9993
2 81599  67.2917 190.7205 0245828  53.7305 338.4756 13.31512221590632
UNKNOWN                 
1 81605U          26022.46361736 -.00000182  00000+0 -31735-3 0  9992
2 81605  56.4334  98.1795 0172411 191.6532 168.0379 12.81556508191421
UNKNOWN                 
1 81614U          26023.48528227  .00008604  00000+0  54132-1 0  9994
2 81614 101.8175  23.0296 0348751  66.9438 296.7998 12.37616952543140
UNKNOWN                 
1 81615U          26023.11386011  .00002849  00000+0  10361-2 0  9990
2 81615  65.8294 325.7051 0768823 117.2619 250.8857 13.34222298588384
UNKNOWN                 
1 81617U          26022.28217378  .00000485  00000+0  31335-2 0  9996
2 81617 101.2608 199.9684 0036772 166.7119 193.4933 12.57567623558201
UNKNOWN                 
1 81624U          26021.81384898  .00011245  00000+0  17513-2 0  9992
2 81624  66.9756  56.1526 0067539 206.5217 153.2444 14.71693636645600
UNKNOWN                 
1 81640U          26023.06344251  .00000490  00000+0  50560-3 0  9998
2 81640  65.8260  47.4456 0976964  60.7930 308.7218 12.57245280515279
UNKNOWN                 
1 81652U          26019.20251061  .00000369  00000+0  49642-3 0  9992
2 81652 102.1454 280.4635 0366475 276.2805 240.6884 13.44439879583684
UNKNOWN                 
1 81667U          26023.80005058  .00004154  00000+0  11169-2 0  9990
2 81667  74.0416 317.8360 0017049 242.1666 117.7766 14.48264893462734
UNKNOWN                 
1 81674U          26013.04869363  .00000736  00000+0  46078-3 0  9990
2 81674  66.8233 285.4302 0029030 211.9398 162.1843 14.09999781618138
UNKNOWN                 
1 81683U          26023.07403831  .00003994  00000+0  86926-3 0  9993
2 81683  81.2136 251.7727 0023057 169.8132 190.3537 14.57681107641882
UNKNOWN                 
1 81693U          26019.40460862  .00000701  00000+0  53343-2 0  9992
2 81693 101.0955  81.7032 0364230  12.3158 348.6521 12.25937419972380
UNKNOWN                 
1 81745U          26021.50745067  .00004441  00000+0  14076-2 0  9992
2 81745  71.0014 300.4634 0004670 184.2952 175.8145 14.40574093635471
UNKNOWN                 
1 81775U          26023.18393054  .00011124  00000+0  34135-2 0  9990
2 81775  82.9196 189.9234 0016309 123.2666 237.0092 14.41495493631249
UNKNOWN                 
1 81779U          26022.47330232 -.00009541  00000+0 -52418+0 0  9997
2 81779  54.5286 148.4341 1552008  90.3672 287.4329  9.34272562484121
UNKNOWN                 
1 81792U          26018.27248162  .00002371  00000+0  84712-3 0  9993
2 81792  65.8274  13.7586 0896191 266.3044  83.5209 13.11111422 84826
UNKNOWN                 
1 81812U          26023.20421337  .00003572  00000+0  25426-1 0  9991
2 81812 103.8146 305.2055 0235193 170.6320 189.9233 12.37692790545697
UNKNOWN                 
1 81816U          26021.10942495  .00001243  00000+0  95521-3 0  9993
2 81816  66.2363 197.9583 0175558 223.9994 134.6995 13.89566714614810
UNKNOWN                 
1 81819U          26019.26473203  .00001136  00000+0  79989-2 0  9996
2 81819 102.1723 121.9588 0028628  41.2765 319.0460 12.47740488552695
UNKNOWN                 
1 81824U          26022.93463859  .00006705  00000+0  23109-2 0  9996
2 81824  65.8403 224.7878 0044029 311.5725  48.1598 14.35933369630507
UNKNOWN                 
1 81833U          26018.23549801  .00000219  00000+0  76826-3 0  9995
2 81833  90.2414   3.7011 0025643 290.3486  69.4877 12.93741453457230
UNKNOWN                 
1 81838U          26019.68915785  .00005938  00000+0  13083-2 0  9996
2 81838  67.7594 167.0648 0041123 329.9936  43.0835 14.57475351638868
UNKNOWN                 
1 81844U          26023.58871184  .00006058  00000+0  21480-2 0  9995
2 81844  82.9077 248.2309 0062560  24.5796 335.8351 14.33278427628881
UNKNOWN                 
1 81845U          26021.48634826  .00007109  00000+0  77650-3 0  9992
2 81845  97.6746 212.0706 0087489 173.4777 216.8762 14.85381644655425
UNKNOWN                 
1 81864U          26022.84947433  .00005166  00000+0  19591-2 0  9995
2 81864  65.6749 330.7786 0766134 355.3573   4.0625 13.32576021556315
